NORAD_CAT_ID,OBJECT_NAME,OBJECT_TYPE,EPOCH,MEAN_MOTION,ECCENTRICITY,INCLINATION,RA_OF_ASC_NODE,ARG_OF_PERICENTER,MEAN_ANOMALY,BSTAR,MEAN_MOTION_DOT,MEAN_MOTION_DDOT,TLE_LINE0,TLE_LINE1,TLE_LINE2,SEMIMAJOR_AXIS,PERIOD,APOGEE,PERIGEE,DECAYED
52644.0,STARLINK-3985,PAYLOAD,2022-08-21 04:00:00,15.09081469,0.0001786999999999,53.2173,319.4311,52.7825,28.2938,-0.022474,-0.00343542,0.0,0 STARLINK-3985,1 52644U 22052AY  22233.16667824 -.00343542  00000-0 -22474-1 0  9997,2 52644  53.2173 319.4311 0001787  52.7825  28.2938 15.09081469 15773,6917.142,95.422,540.244,537.771,0.0
52644.0,STARLINK-3985,PAYLOAD,2022-08-21 12:00:00,15.08891567,0.0001826,53.2148,317.9411,46.7842,46.0009,-0.0050498,-0.00079879,0.0,0 STARLINK-3985,1 52644U 22052AY  22233.50001157 -.00079879  00000-0 -50498-2 0  9993,2 52644  53.2148 317.9411 0001826  46.7842  46.0009 15.08891567 15825,6917.723000000001,95.434,540.851,538.325,0.0
52644.0,STARLINK-3985,PAYLOAD,2022-08-21 14:00:01,15.0888177,0.0001855,53.2152,317.5667,45.7268,139.9697,-0.0055745,-0.00088026,0.0,0 STARLINK-3985,1 52644U 22052AY  22233.58334491 -.00088026  00000-0 -55745-2 0  9995,2 52644  53.2152 317.5667 0001855  45.7268 139.9697 15.08881770  1300,6917.753000000002,95.435,540.901,538.3340000000002,0.0
52644.0,STARLINK-3985,PAYLOAD,2022-08-21 20:00:01,15.08864713,0.0001751999999999,53.2125,316.4474,41.1396,63.2734,-0.0024318,-0.00038809,0.0,0 STARLINK-3985,1 52644U 22052AY  22233.83334491 -.00038809  00000-0 -24318-2 0  9999,2 52644  53.2125 316.4474 0001752  41.1396  63.2734 15.08864713 15878,6917.805,95.436,540.882,538.4580000000002,0.0
52644.0,STARLINK-3985,PAYLOAD,2022-08-21 22:00:00,15.08855664,0.0001685,53.2126,316.0728,42.8088,154.5097,-0.0017644,-0.00028271,0.0,0 STARLINK-3985,1 52644U 22052AY  22233.91667824 -.00028271  00000-0 -17644-2 0  9993,2 52644  53.2126 316.0728 0001685  42.8088 154.5097 15.08855664  1302,6917.833000000001,95.437,540.863,538.5319999999998,0.0
52644.0,STARLINK-3985,PAYLOAD,2022-08-22 12:00:00,15.08815687,0.0001892,53.2126,313.4548,45.8769,81.745,-0.00075822,-0.00012327,0.0,0 STARLINK-3985,1 52644U 22052AY  22234.50001157 -.00012327  00000-0 -75822-3 0  9998,2 52644  53.2126 313.4548 0001892  45.8769  81.7450 15.08815687  1307,6917.955,95.439,541.129,538.511,0.0
52644.0,STARLINK-3985,PAYLOAD,2022-08-22 20:00:01,15.08829037,0.0001886999999999,53.2124,311.9579,43.9709,95.207,-0.0016184,-0.00025945,0.0,0 STARLINK-3985,1 52644U 22052AY  22234.83334491 -.00025945  00000-0 -16184-2 0  9999,2 52644  53.2124 311.9579 0001887  43.9709  95.2070 15.08829037 16026,6917.9140000000025,95.438,541.0840000000002,538.4730000000002,0.0
52644.0,STARLINK-3985,PAYLOAD,2022-08-22 22:00:00,15.08828113,0.0001825,53.2126,311.5833,45.5096,186.5616,-0.0017285999999999,-0.00027685,0.0,0 STARLINK-3985,1 52644U 22052AY  22234.91667824 -.00027685  00000-0 -17286-2 0  9994,2 52644  53.2126 311.5833 0001825  45.5096 186.5616 15.08828113  1305,6917.917,95.438,541.044,538.519,0.0
52644.0,STARLINK-3985,PAYLOAD,2022-08-23 12:00:00,15.08823396,0.000198,53.2126,308.9656,45.4574,116.8665,-0.00044193,-7.312e-05,0.0,0 STARLINK-3985,1 52644U 22052AY  22235.50001157 -.00007312  00000-0 -44193-3 0  9994,2 52644  53.2126 308.9656 0001980  45.4574 116.8665 15.08823396 16124,6917.931,95.439,541.1659999999998,538.4259999999998,0.0
52644.0,STARLINK-3985,PAYLOAD,2022-08-23 14:00:01,15.08807483,0.0002026999999999,53.2128,308.5918,44.319,210.9025,0.0018873,0.0002985,0.0,0 STARLINK-3985,1 52644U 22052AY  22235.58334491  .00029850  00000-0  18873-2 0  9996,2 52644  53.2128 308.5918 0002027  44.3190 210.9025 15.08807483  1307,6917.98,95.44,541.247,538.443,0.0
52644.0,STARLINK-3985,PAYLOAD,2022-08-23 22:00:01,15.08837199,0.0001899999999999,53.2129,307.0939,45.4295,221.4235,-0.0014309,-0.00022987,0.0,0 STARLINK-3985,1 52644U 22052AY  22235.91668981 -.00022987  00000-0 -14309-2 0  9993,2 52644  53.2129 307.0939 0001900  45.4295 221.4235 15.08837199  1309,6917.889,95.438,541.068,538.44,0.0
52644.0,STARLINK-3985,PAYLOAD,2022-08-24 04:00:00,15.08821552,0.0001869,53.2129,305.971,49.7908,135.6867,0.0016404,0.00025902,0.0,0 STARLINK-3985,1 52644U 22052AY  22236.16667824  .00025902  00000-0  16404-2 0  9992,2 52644  53.2129 305.9710 0001869  49.7908 135.6867 15.08821552 16225,6917.937,95.439,541.095,538.509,0.0
52644.0,STARLINK-3985,PAYLOAD,2022-08-24 14:00:01,15.08816087,0.0002109,53.213,304.1025,44.2542,245.7114,0.0021987,0.00034855,0.0,0 STARLINK-3985,1 52644U 22052AY  22236.58334491  .00034855  00000-0  21987-2 0  9998,2 52644  53.2130 304.1025 0002109  44.2542 245.7114 15.08816087  1307,6917.953,95.439,541.2769999999998,538.359,0.0
52644.0,STARLINK-3985,PAYLOAD,2022-08-24 20:00:01,15.08854879,0.0002011,53.2129,302.9792,44.6094,164.0366,-0.0020298,-0.00032461,0.0,0 STARLINK-3985,1 52644U 22052AY  22236.83334491 -.00032461  00000-0 -20298-2 0  9993,2 52644  53.2129 302.9792 0002011  44.6094 164.0366 15.08854879 16321,6917.835,95.437,541.091,538.309,0.0
52644.0,STARLINK-3985,PAYLOAD,2022-08-24 22:00:00,15.08845033,0.0001966999999999,53.2131,302.6047,45.9253,255.6237,-0.00097588,-0.00015788,0.0,0 STARLINK-3985,1 52644U 22052AY  22236.91667824 -.00015788  00000-0 -97588-3 0  9991,2 52644  53.2131 302.6047 0001967  45.9253 255.6237 15.08845033  1302,6917.865,95.437,541.091,538.369,0.0
52644.0,STARLINK-3985,PAYLOAD,2022-08-25 12:00:00,15.08838457,0.0002139,53.213,299.9871,45.0896,186.7561,0.00032428,4.876e-05,0.0,0 STARLINK-3985,1 52644U 22052AY  22237.50001157  .00004876  00000-0  32428-3 0  9994,2 52644  53.2130 299.9871 0002139  45.0896 186.7561 15.08838457 16425,6917.885,95.438,541.23,538.27,0.0
52644.0,STARLINK-3985,PAYLOAD,2022-08-25 14:00:01,15.08825189,0.0002158,53.2131,299.6132,44.4549,280.2937,0.0023743,0.00037687,0.0,0 STARLINK-3985,1 52644U 22052AY  22237.58334491  .00037687  00000-0  23743-2 0  9997,2 52644  53.2131 299.6132 0002158  44.4549 280.2937 15.08825189  1308,6917.926,95.438,541.284,538.298,0.0
52644.0,STARLINK-3985,PAYLOAD,2022-08-25 22:00:00,15.08849401,0.0001996999999999,53.2131,298.1152,46.9984,289.3467,-0.00049862,-8.217e-05,0.0,0 STARLINK-3985,1 52644U 22052AY  22237.91667824 -.00008217  00000-0 -49862-3 0  9993,2 52644  53.2131 298.1152 0001997  46.9984 289.3467 15.08849401  1305,6917.852,95.437,541.0980000000002,538.335,0.0
52644.0,STARLINK-3985,PAYLOAD,2022-08-26 14:00:01,15.08834196,0.0002144,53.2129,295.1237,44.2922,315.336,0.0022988,0.00036482,0.0,0 STARLINK-3985,1 52644U 22052AY  22238.58335648  .00036482  00000-0  22988-2 0  9995,2 52644  53.2129 295.1237 0002144  44.2922 315.3360 15.08834196  1308,6917.898,95.438,541.246,538.28,0.0
52644.0,STARLINK-3985,PAYLOAD,2022-08-26 20:00:01,15.08882745,0.0001992,53.2127,294.0002,44.9594,233.303,-0.0052304,-0.00082675,0.0,0 STARLINK-3985,1 52644U 22052AY  22238.83334491 -.00082675  00000-0 -52304-2 0  9990,2 52644  53.2127 294.0002 0001992  44.9594 233.3030 15.08882745 16623,6917.75,95.435,540.993,538.237,0.0
52644.0,STARLINK-3985,PAYLOAD,2022-08-26 22:00:00,15.08853346,0.0001929,53.2127,293.6257,46.5319,324.6437,-0.0024899,-0.00039712,0.0,0 STARLINK-3985,1 52644U 22052AY  22238.91667824 -.00039712  00000-0 -24899-2 0  9990,2 52644  53.2127 293.6257 0001929  46.5319 324.6437 15.08853346  1302,6917.84,95.437,541.039,538.37,0.0
52644.0,STARLINK-3985,PAYLOAD,2022-08-27 14:00:01,15.08812378,0.000206,53.2123,290.6343,42.541,351.8239,0.0026366,0.00041892,0.0,0 STARLINK-3985,1 52644U 22052AY  22239.58334491  .00041892  00000-0  26366-2 0  9996,2 52644  53.2123 290.6343 0002060  42.5410 351.8239 15.08812378  1308,6917.965,95.439,541.255,538.405,0.0
52644.0,STARLINK-3985,PAYLOAD,2022-08-27 20:00:01,15.08849437,0.0001952,53.2121,289.5107,44.7666,268.2796,-0.0019498,-0.00031194,0.0,0 STARLINK-3985,1 52644U 22052AY  22239.83334491 -.00031194  00000-0 -19498-2 0  9998,2 52644  53.2121 289.5107 0001952  44.7666 268.2796 15.08849437 16780,6917.852,95.437,541.067,538.366,0.0
52644.0,STARLINK-3985,PAYLOAD,2022-08-27 22:00:00,15.08827674,0.0001882,53.2121,289.1361,46.6737,359.2779,0.00077595,0.00012079,0.0,0 STARLINK-3985,1 52644U 22052AY  22239.91667824  .00012079  00000-0  77595-3 0  9998,2 52644  53.2121 289.1361 0001882  46.6737 359.2779 15.08827674  1303,6917.918000000002,95.438,541.085,538.481,0.0
52644.0,STARLINK-3985,PAYLOAD,2022-08-28 12:00:00,15.08830253,0.0002083,53.2131,286.5188,44.6164,291.627,0.0013451,0.00021179,0.0,0 STARLINK-3985,1 52644U 22052AY  22240.50001157  .00021179  00000-0  13451-2 0  9997,2 52644  53.2131 286.5188 0002083  44.6164 291.6270 15.08830253 16889,6917.91,95.438,541.216,538.3340000000002,0.0
52644.0,STARLINK-3985,PAYLOAD,2022-08-28 14:00:01,15.0882277,0.0002068,53.2135,286.1448,43.1608,25.9833,0.0026937,0.00042823,0.0,0 STARLINK-3985,1 52644U 22052AY  22240.58334491  .00042823  00000-0  26937-2 0  9997,2 52644  53.2135 286.1448 0002068  43.1608  25.9833 15.08822770  1307,6917.933000000001,95.439,541.229,538.367,0.0
52644.0,STARLINK-3985,PAYLOAD,2022-08-28 22:00:00,15.08832761,0.0001896,53.2134,284.6465,47.6722,33.0709,0.0012406,0.00019507,0.0,0 STARLINK-3985,1 52644U 22052AY  22240.91667824  .00019507  00000-0  12406-2 0  9992,2 52644  53.2134 284.6465 0001896  47.6722  33.0709 15.08832761  1305,6917.903,95.438,541.0790000000002,538.456,0.0
52644.0,STARLINK-3985,PAYLOAD,2022-08-29 12:00:00,15.08843669,0.0002070999999999,53.2131,282.0292,44.0791,326.9729,-0.0011936,-0.00019237,0.0,0 STARLINK-3985,1 52644U 22052AY  22241.50001157 -.00019237  00000-0 -11936-2 0  9998,2 52644  53.2131 282.0292 0002071  44.0791 326.9729 15.08843669 17037,6917.869000000002,95.437,541.1669999999998,538.3009999999998,0.0
52644.0,STARLINK-3985,PAYLOAD,2022-08-29 14:00:01,15.08828653,0.0002054,53.2128,281.6551,42.1531,61.8028,0.00032306,4.856e-05,0.0,0 STARLINK-3985,1 52644U 22052AY  22241.58334491  .00004856  00000-0  32306-3 0  9990,2 52644  53.2128 281.6551 0002054  42.1531  61.8028 15.08828653  1304,6917.915,95.438,541.201,538.359,0.0
